*******************************************************************************
 Revised: Sep 29, 2017              Autonoe / (Jupiter)                     528

 SATELLITE PHYSICAL PROPERTIES:
  Radius (km)             =                 Density (g cm^-3)   =              
  Mass (10^20 kg )        =                 Geometric Albedo    =   
                                            V(1,0)              = 

 SATELLITE ORBITAL DATA:
  Semi-major axis, a (km) =                 Orbital period      =
  Eccentricity, e         =                 Rotational period   = 
  Inclination, i  (deg)   =      
*******************************************************************************
 
 
*******************************************************************************
Ephemeris / WWW_USER Sun Nov 12 11:15:13 2017 Pasadena, USA      / Horizons    
*******************************************************************************
Target body name: Autonoe (528)                   {source: jup341}
Center body name: Solar System Barycenter (0)     {source: DE431mx}
Center-site name: BODY CENTER
*******************************************************************************
Start time      : A.D. 2017-Jul-10 00:00:00.0000 TDB
Stop  time      : A.D. 2020-Aug-13 00:00:00.0000 TDB
Step-size       : 1440 minutes
*******************************************************************************
Center geodetic : 0.00000000,0.00000000,0.0000000 {E-lon(deg),Lat(deg),Alt(km)}
Center cylindric: 0.00000000,0.00000000,0.0000000 {E-lon(deg),Dxy(km),Dz(km)}
Center radii    : (undefined)                                                  
Output units    : KM-S                                                         
Output type     : GEOMETRIC cartesian states
Output format   : 3 (position, velocity, LT, range, range-rate)
Reference frame : ICRF/J2000.0                                                 
Coordinate systm: Ecliptic and Mean Equinox of Reference Epoch                 
*******************************************************************************
            JDTDB,            Calendar Date (TDB),                      X,                      Y,                      Z,                     VX,                     VY,                     VZ,                     LT,                     RG,                     RR,
**************************************************************************************************************************************************************************************************************************************************************************
$$SOE
2458349.500000000, A.D. 2018-Aug-19 00:00:00.0000, -4.461087478391390E+08, -6.410193112171662E+08, -1.063685399531454E+06,  1.249546187052225E+01, -6.844401419881229E+00, -2.738832794743180E-01,  2.605047821089225E+03,  7.809736894918828E+08, -1.519449445205809E+00,
2458350.500000000, A.D. 2018-Aug-20 00:00:00.0000, -4.450287669809891E+08, -6.416104722685173E+08, -1.087091818266064E+06,  1.250408099621295E+01, -6.839874429436010E+00, -2.679332316162109E-01,  2.604611872243554E+03,  7.808429953158770E+08, -1.505871761771614E+00,
2458351.500000000, A.D. 2018-Aug-21 00:00:00.0000, -4.439480450661230E+08, -6.422012401793354E+08, -1.109984481745183E+06,  1.251261598546873E+01, -6.835300937851315E+00, -2.619908152141739E-01,  2.604179842445001E+03,  7.807134760406396E+08, -1.492252786891799E+00,
2458352.500000000, A.D. 2018-Aug-22 00:00:00.0000, -4.428665893576611E+08, -6.427916109302357E+08, -1.132364054062068E+06,  1.252106698275953E+01, -6.830680906593970E+00, -2.560561393151559E-01,  2.603751743491244E+03,  7.805851352030256E+08, -1.478593231224446E+00,
2458353.500000000, A.D. 2018-Aug-23 00:00:00.0000, -4.417844071064960E+08, -6.433815804985260E+08, -1.154231208686918E+06,  1.252943412590767E+01, -6.826014296277363E+00, -2.501293133119633E-01,  2.603327586975552E+03,  7.804579762786094E+08, -1.464893803304267E+00,
2458354.500000000, A.D. 2018-Aug-24 00:00:00.0000, -4.407015055518385E+08, -6.439711448578458E+08, -1.175586628831893E+06,  1.253771754964109E+01, -6.821301061526583E+00, -2.442104536381180E-01,  2.602907384286556E+03,  7.803320026816173E+08, -1.451155215810531E+00,
2458355.500000000, A.D. 2018-Aug-25 00:00:00.0000, -4.396178919208254E+08, -6.445602999779483E+08, -1.196431007863164E+06,  1.254591740024467E+01, -6.816541160227388E+00, -2.382996763932201E-01,  2.602491146606634E+03,  7.802072177644409E+08, -1.437378186209953E+00,
2458356.500000000, A.D. 2018-Aug-26 00:00:00.0000, -4.385335734279368E+08, -6.451490418253025E+08, -1.216765048810363E+06,  1.255403381570171E+01, -6.811734555252849E+00, -2.323970909132558E-01,  2.602078884912201E+03,  7.800836248177278E+08, -1.423563424045667E+00,
2458357.500000000, A.D. 2018-Aug-27 00:00:00.0000, -4.374485572771907E+08, -6.457373663625447E+08, -1.236589464570522E+06,  1.256206692335087E+01, -6.806881202678673E+00, -2.265028125504993E-01,  2.601670609976073E+03,  7.799612270710864E+08, -1.409711639405650E+00,
2458358.500000000, A.D. 2018-Aug-28 00:00:00.0000, -4.363628506588657E+08, -6.463252695493972E+08, -1.255904977632016E+06,  1.257001686804912E+01, -6.801981070159998E+00, -2.206169480864841E-01,  2.601266332363594E+03,  7.798400276919270E+08, -1.395823543489159E+00,
2458359.500000000, A.D. 2018-Aug-29 00:00:00.0000, -4.352764607533107E+08, -6.469127473426137E+08, -1.274712319379717E+06,  1.257788378633755E+01, -6.797034113688003E+00, -2.147396167799180E-01,  2.600866062439381E+03,  7.797200297874833E+08, -1.381899853303492E+00,
2458360.500000000, A.D. 2018-Aug-30 00:00:00.0000, -4.341893947282127E+08, -6.474997956949346E+08, -1.293012231965691E+06,  1.258566780216368E+01, -6.792040304324907E+00, -2.088709183207560E-01,  2.600469810359090E+03,  7.796012364023454E+08, -1.367941267177506E+00,
2458361.500000000, A.D. 2018-Aug-31 00:00:00.0000, -4.331016597410525E+08, -6.480864105566356E+08, -1.310805466012657E+06,  1.259336904188827E+01, -6.786999600688090E+00, -2.030109676937037E-01,  2.600077586078036E+03,  7.794836505210409E+08, -1.353948495933890E+00,
2458362.500000000, A.D. 2018-Sep-01 00:00:00.0000, -4.320132629378628E+08, -6.486725878741950E+08, -1.328092782507330E+06,  1.260098763930442E+01, -6.781911961931831E+00, -1.971598821375706E-01,  2.599689399344955E+03,  7.793672750661675E+08, -1.339922254894749E+00,
2458363.500000000, A.D. 2018-Sep-02 00:00:00.0000, -4.309242114534370E+08, -6.492583235909417E+08, -1.344874952081144E+06,  1.260852372089469E+01, -6.776777353631060E+00, -1.913177703235531E-01,  2.599305259703962E+03,  7.792521128989789E+08, -1.325863250765012E+00,
2458364.500000000, A.D. 2018-Sep-03 00:00:00.0000, -4.298345124117244E+08, -6.498436136470597E+08, -1.361152754948825E+06,  1.261597741262942E+01, -6.771595736922262E+00, -1.854847463974689E-01,  2.598925176495073E+03,  7.791381668195418E+08, -1.311772194416792E+00,
2458365.500000000, A.D. 2018-Sep-04 00:00:00.0000, -4.287441729256411E+08, -6.504284539793214E+08, -1.376926981327564E+06,  1.262334884366916E+01, -6.766367073219739E+00, -1.796609259918855E-01,  2.598549158852899E+03,  7.790254395663431E+08, -1.297649798992607E+00,
2458366.500000000, A.D. 2018-Sep-05 00:00:00.0000, -4.276532000969596E+08, -6.510128405214124E+08, -1.392198431183428E+06,  1.263063814183887E+01, -6.761091329704499E+00, -1.738464188163671E-01,  2.598177215707137E+03,  7.789139338164389E+08, -1.283496772793059E+00,
2458367.500000000, A.D. 2018-Sep-06 00:00:00.0000, -4.265616010166103E+08, -6.515967692042912E+08, -1.406967913815677E+06,  1.263784543023417E+01, -6.755768474809267E+00, -1.680413325377037E-01,  2.597809355783928E+03,  7.788036521858604E+08, -1.269313821148117E+00,
2458368.500000000, A.D. 2018-Sep-07 00:00:00.0000, -4.254693827650229E+08, -6.521802359560404E+08, -1.421236247980624E+06,  1.264497082951382E+01, -6.750398473405406E+00, -1.622457787707652E-01,  2.597445587605873E+03,  7.786945972296190E+08, -1.255101651696791E+00,
2458369.500000000, A.D. 2018-Sep-08 00:00:00.0000, -4.243765524121833E+08, -6.527632367016482E+08, -1.435004262183547E+06,  1.265201446096915E+01, -6.744981289953901E+00, -1.564598705628839E-01,  2.597085919491337E+03,  7.785867714414977E+08, -1.240860973431377E+00,
2458370.500000000, A.D. 2018-Sep-09 00:00:00.0000, -4.232831170176027E+08, -6.533457673631647E+08, -1.448272794580907E+06,  1.265897644524046E+01, -6.739516891852926E+00, -1.506837182146445E-01,  2.596730359554636E+03,  7.784801772541081E+08, -1.226592493167326E+00,
2458371.500000000, A.D. 2018-Sep-10 00:00:00.0000, -4.221890836304916E+08, -6.539278238597865E+08, -1.461042692885280E+06,  1.266585690017725E+01, -6.734005244415631E+00, -1.449174340158303E-01,  2.596378915706420E+03,  7.783748170390025E+08, -1.212296918560694E+00,
2458372.500000000, A.D. 2018-Sep-11 00:00:00.0000, -4.210944592898658E+08, -6.545094021074923E+08, -1.473314814787298E+06,  1.267265594523785E+01, -6.728446308895932E+00, -1.391611359551086E-01,  2.596031595652662E+03,  7.782706931063734E+08, -1.197974962148445E+00,
2458373.500000000, A.D. 2018-Sep-12 00:00:00.0000, -4.199992510241196E+08, -6.550904980192105E+08, -1.485090027984649E+06,  1.267937370658016E+01, -6.722840055955660E+00, -1.334149348552391E-01,  2.595688406894188E+03,  7.781678077049125E+08, -1.183627332755235E+00,
2458374.500000000, A.D. 2018-Sep-13 00:00:00.0000, -4.189034658509284E+08, -6.556711075056713E+08, -1.496369209355175E+06,  1.268601030145674E+01, -6.717186457544198E+00, -1.276789378601109E-01,  2.595349356728742E+03,  7.780661630224284E+08, -1.169254733807496E+00,
2458375.500000000, A.D. 2018-Sep-14 00:00:00.0000, -4.178071107786210E+08, -6.562512264740449E+08, -1.507153246029824E+06,  1.269256584124389E+01, -6.711485475083540E+00, -1.219532621436485E-01,  2.595014452249486E+03,  7.779657611853969E+08, -1.154857874962707E+00,
